#dP2021  9 19  0  0  0.00000000      96 __u+U ITR00 FIT  IAC
## 2176      0.00000000   900.00000000 59476 0.0000000000000
+  126   C01C02C03C04C05C06C07C08C09C10C11C12C13C14C16C19C20
+        C21C22C23C24C25C26C27C28C29C30C32C33C34C35C36C37C38
+        C39C40C41C42C43C44C45C46C60E01E02E03E04E05E07E08E09
+        E11E12E13E14E15E18E19E21E24E25E26E27E30E31E33E36G01
+        G02G03G04G05G06G07G08G09G10G12G13G14G15G16G17G18G19
+        G20G21G22G23G24G25G26G27G28G29G30G31G32J01J02J03J07
+        R01R02R03R04R05R06R07R08R09R10R11R12R13R14R15R16R17
+        R18R19R20R21R22R23R24  0  0  0  0  0  0  0  0  0  0
++        13 12 13 12 12 10  9  9  9  9  9  9  9  9 10  7  7
++         7  7  7  7  7  7  7  7  7  7  7  7  7  8  7  7  8
++         9  8  7  8  7  8  8  7 12  5  5  4  4  4  4  4  4
++         4  4  4  4  5  4  4  4  4  4  4  5  5  5  5  4  4
++         4  3  4  4  3  4  4  4  4  3  4  4  4  4  4  4  4
++         4  4  4  4  4  3  3  4  4  4  4  3  4  9  9  9 14
++         7  6  6  6  6 13  6  6  6 13  8  6  7  6  6  7  6
++         6  7  7  5  7 13  6  0  0  0  0  0  0  0  0  0  0
%c M  cc GPS ccc cccc cccc cccc cccc ccccc ccccc ccccc ccccc
%c cc cc ccc ccc cccc cccc cccc cccc ccccc ccccc ccccc ccccc
%f  0.0000000  0.000000000  0.00000000000  0.000000000000000
%f  0.0000000  0.000000000  0.00000000000  0.000000000000000
%i    0    0    0    0      0      0      0      0         0
%i    0    0    0    0      0      0      0      0         0
/* INFORMATION & ANALYSIS CENTER (IAC)            RAPID DATA
/* S/V CLOCKS ARE ALIGNED TO GNSS TIME                      
/* G:C1WC2W R:C1PC2P E:C1XC5X C:C2IC6I J:C1CC2S             
/* PCV:IGS14_2163 OL/AL:FES2004  NONE     YN ORB:CoN CLK:CoN
*  2021 09 19 22 30  0.00000000
PC01 -34308.053351  24498.189538    203.395463    -55.219022
PC02   4385.324630  41907.439365   -409.220775    320.717191
PC03 -14769.861132  39454.118373    413.317260   -153.094675
PC04 -39565.406628  14510.615127    715.567680    231.656796
PC05  21836.287395  36047.402320   -751.557550    239.090185
PC06  -6082.734647  24038.961712 -34099.390013    216.362008
PC07 -18391.145180  34672.378448  15193.893832   -121.655062
PC08  -2711.342622  39076.081515  15788.328589   -944.960851
PC09   4189.289489  26859.418275 -31791.562191   -119.417375
PC10 -10951.644314  34644.894185  21249.583214      1.120002
PC11  11567.299506 -11002.433813 -22833.435315    584.659049
PC12  24553.507225   2120.219995 -13087.040553    754.672801
PC13   2388.966876  41378.411073   8606.937882    414.781592
PC14  18973.019352 -19368.637979   6740.993938    635.633084
PC16  -8956.939793  22310.286346 -34495.720889   -801.262650
PC19 -11018.790966  20719.151169 -15073.207428    959.919262
PC20 -23014.176392  15730.655989    920.520535   -800.684826
PC21  21907.589337  -1005.160219 -17260.135898   -932.368592
PC22   7818.609242  13875.955370 -22920.074121   -952.606945
PC23  -9057.737385 -24614.519605  -9513.571944   -963.110494
PC24  13879.155723 -12353.221740  20814.361107   -966.751117
PC25   2250.178336 -26796.848424   7416.228291   -852.361709
PC26  16296.916049   7139.415119  21501.793885    847.691258
PC27 -26059.390518  -8843.481776   4641.263000    600.044099
PC28 -17270.495990 -17883.455623 -12660.799359    -24.511505
PC29  -1025.804258  16489.207465  22483.439751    449.423788
PC30 -19794.170596   5682.383631  18833.133798    481.116428
PC32 -21861.835390   1082.844291  17312.157880   -948.496700
PC33  10989.165699 -20815.536258  14999.183796   -968.527785
PC34  19163.580271  -6305.483259 -19283.961905   -578.279695
PC35  17521.672881  17399.014547  12968.825950    -84.390575
PC36  -3113.315148  26620.074359  -7746.953029   -762.252508
PC37 -15995.384597  -8557.219714 -21175.828635   -866.352252
PC38  -8100.361209  35393.081459  21576.990570    176.619737
PC39 -15265.854840  19907.501799 -33913.002198     33.290890
PC40 -25162.389934  30531.977176  14341.909118    200.989713
PC41  -7527.222681 -14141.421288  22890.686235   -934.842612
PC42  23278.675894 -15307.092462  -1698.247265   -957.937814
PC43   1781.281888 -16394.859814 -22521.188032   -922.153591
PC44  26338.618263   8025.860259  -4465.551629    398.492578
PC45   9163.452761  24511.368318   9735.584575    552.152898
PC46 -13288.596333  13643.670290 -20395.543061     77.486558
PC60   7324.530582  41492.391696   1638.424336     -0.783080
PE01 -14510.707017  -8175.251585 -24459.208006   -478.179761
PE02  14583.810959   8037.308047  24479.900003    247.964883
PE03  26036.964181   5789.728884 -12855.803304   -476.411230
PE04 -28221.057234   7304.034009  -5134.476002   -860.293818
PE05   8506.964692  15711.126495 -23602.925769   -248.061576
PE07  13770.447892 -16360.927930  20472.411011   -587.334571
PE08  28072.487100  -7628.282830   5505.859087   5934.954155
PE09 -13485.997965  16343.577565 -20664.088871   5525.992471
PE11  -3062.695669  19506.250142  22039.284295   5400.952816
PE12 -18022.785508   1678.470666  23417.290132   5001.367760
PE13   3395.729353 -19142.923058 -22318.541989    421.681182
PE14  22756.884249  10528.829949   9982.254770  -1576.586091
PE15  17967.909226  -1678.453903 -23462.376154    791.385636
PE18 -13492.949260 -18027.272748 -19806.020076  -1730.591079
PE19 -24591.671969  -7252.173802  14795.226412    381.801791
PE21  -2219.188859 -24235.315710 -16840.738722   -688.889794
PE24 -12669.174388  26702.005699  -1826.686826  -1126.880093
PE25   2066.599621  24359.964441  16703.998359   -547.227553
PE26 -13658.102118 -25277.318002  -7090.715249   1324.390882
PE27  11957.258730 -27060.615263    860.858481   -124.134590
PE30  19156.673992 -12719.207655  18633.148490   2606.284089
PE31 -18980.449057  13977.332520 -17888.156557   -485.795251
PE33 -21912.739716 -16717.821765  10789.149803   -464.744695
PE36  13125.084608  25284.657475   8044.189407   -264.722995
PG01 -17315.694682  -6026.254844  19068.300942    562.779444
PG02  14140.622994  22420.500112    -42.909848   -633.239067
PG03 -18002.297917   4304.073469  18906.107682   -295.311983
PG04 -26509.839005   -423.454188  -2115.365681   -204.266900
PG05  12279.778860   9376.395403 -21760.459108    -54.968899
PG06   4329.748249  23819.744853  10915.478222     77.750461
PG07 -11605.566320  10328.253708 -21123.813759    248.243025
PG08 -24213.887395  -6732.305031  -9076.710070    -37.102401
PG09 -21858.237353   8479.552414 -12574.667442   -361.191361
PG10  10855.700962 -23607.521095   4828.580440   -206.779975
PG12  17940.756766  -2356.332419  19145.872514    -99.798525
PG13  18411.903290  13089.680850 -14232.438070    187.873682
PG14 -11810.674857  23242.727139   4921.328475     -2.164580
PG15  24904.475708   4633.589689  -8926.141128   -119.894959
PG16  -7629.640587 -14054.197300 -21373.403029   -393.426888
PG17 -10083.186873  13211.322212  21154.281262    507.157949
PG18  10053.522800 -12422.360645 -21210.230802    320.411177
PG19     31.691531  14777.859199  21807.068017     55.152356
PG20   5004.315953  19823.338397 -17119.047489    519.053707
PG21 -19562.707901 -12506.136213  14067.578179    143.577036
PG22 -15652.269590  -3705.368579  21290.151156   -509.130809
PG23  16849.492441 -19366.065904  -6691.478209     55.357629
PG24  19401.970145   9525.607415  15433.693259    238.217876
PG25  18852.755011 -12851.972644  13098.333413    211.062448
PG26   1131.175280 -22545.711166 -13824.552432    136.053612
PG27 -16722.529781 -12183.065231 -17042.447837   -195.230993
PG28  -7373.658930  22956.789728  11904.699852    497.978708
PG29  24020.257755  -4392.120633 -10571.624266   -414.245535
PG30  -3230.289862  20488.439204 -16385.758389   -474.542467
PG31  -5256.691886 -24269.884623   8635.979478   -140.658015
PG32   5580.347827 -14868.372829  21380.754600     -2.047864
PJ01 -35424.342798  20011.614091  -6496.563214    104.253147
PJ02 -23952.483207  31644.156170  -9673.478964     -2.609742
PJ03 -27734.018346  21802.724576  28124.977888     -2.299336
PJ07 -25377.365243  33673.092110    -55.033835      0.016022
PR01  16732.375731 -14806.318633  12313.348667     85.558540
PR02  -2462.235341 -10800.680949  23009.026022    493.882617
PR03 -18249.077513   -894.424421  17864.019357     43.258363
PR04 -23561.343168   9376.839510   2832.224044    105.553552
PR05 -15932.297287  14381.350508 -13799.841942     79.250184
PR06   3783.279940  10470.381699 -22966.601560     -4.752380
PR07  18624.873218    476.302962 -17366.472498    -41.115363
PR08  23512.598305  -9478.995482  -2652.085113    -61.023306
PR09   2876.271123  23550.272758   9293.000861     14.088608
PR10   9204.086921  11328.585427  20937.085667    -75.152917
PR11  10799.281914  -8620.471307  21459.657580     48.873501
PR12   6043.860398 -23271.016630   8528.923590    263.366431
PR13  -2317.212932 -23945.043954  -8493.708636    -60.895705
PR14  -9546.945355 -10090.256635 -21379.260406     68.987370
PR15 -10948.944154   9132.739340 -21123.596626    101.365557
PR16  -5000.906554  23995.528149  -7311.037957    -21.719097
PR17 -21391.251095 -13527.457794   2968.575916    459.941365
PR18 -17998.806858  -3091.679753  17841.007744     91.009537
PR19  -6122.120894   8331.616965  23316.227352   -160.009742
PR20  11898.936051  17184.132861  14604.550181    -56.166565
PR21  21524.252875  13038.515937  -4289.233170   -240.555849
PR22  17341.627390   2407.467394 -18528.618521   -134.185607
PR23    -92.562172 -12367.932554 -22316.521203    -13.802875
PR24 -12614.843035 -17268.790811 -13870.885749     59.330752
EOF
